[
    {
        "Altitude(m)": 559716.1417270997,
        "Argument of Periapsis(deg)": 0.006622991110713501,
        "Eccentricity": 0.0,
        "Inclination(deg)": 53.0,
        "Latitude(deg)": -22.420485829349012,
        "Longitude(deg)": 12.238520335123402,
        "Mean Anomaly(deg)": -151.72660713242246,
        "RAAN(deg)": 274.990143368528,
        "Satellite Name": "Starlink Shell 1 1222",
        "Satellite Number": 1222,
        "Semi-Major Axis(m)": 6931778.249405717,
        "Time(s)": 190
    },
    {
        "Altitude(m)": 559880.7713231872,
        "Argument of Periapsis(deg)": 0.0069715695902247375,
        "Eccentricity": 0.0,
        "Inclination(deg)": 53.0,
        "Latitude(deg)": -22.89782002875239,
        "Longitude(deg)": 12.638510174923198,
        "Mean Anomaly(deg)": -151.09977592886574,
        "RAAN(deg)": 274.9896245984506,
        "Satellite Name": "Starlink Shell 1 1222",
        "Satellite Number": 1222,
        "Semi-Major Axis(m)": 6931778.249405717,
        "Time(s)": 200
    },
    {
        "Altitude(m)": 560046.5220185154,
        "Argument of Periapsis(deg)": 0.007320148069735974,
        "Eccentricity": 0.0,
        "Inclination(deg)": 53.0,
        "Latitude(deg)": -23.37387775255267,
        "Longitude(deg)": 13.041578493313686,
        "Mean Anomaly(deg)": -150.47294472530896,
        "RAAN(deg)": 274.98910582837306,
        "Satellite Name": "Starlink Shell 1 1222",
        "Satellite Number": 1222,
        "Semi-Major Axis(m)": 6931778.249405717,
        "Time(s)": 210
    },
    {
        "Altitude(m)": 560213.3345952168,
        "Argument of Periapsis(deg)": 0.007668726549247212,
        "Eccentricity": 0.0,
        "Inclination(deg)": 53.0,
        "Latitude(deg)": -23.848621273550666,
        "Longitude(deg)": 13.44781070444026,
        "Mean Anomaly(deg)": -149.84611352175227,
        "RAAN(deg)": 274.98858705829554,
        "Satellite Name": "Starlink Shell 1 1222",
        "Satellite Number": 1222,
        "Semi-Major Axis(m)": 6931778.249405717,
        "Time(s)": 220
    },
    {
        "Altitude(m)": 560381.1492129004,
        "Argument of Periapsis(deg)": 0.00801730502875845,
        "Eccentricity": 0.0,
        "Inclination(deg)": 53.0,
        "Latitude(deg)": -24.322012115434966,
        "Longitude(deg)": 13.857293414012373,
        "Mean Anomaly(deg)": -149.21928231819555,
        "RAAN(deg)": 274.98806828821813,
        "Satellite Name": "Starlink Shell 1 1222",
        "Satellite Number": 1222,
        "Semi-Major Axis(m)": 6931778.249405717,
        "Time(s)": 230
    },
    {
        "Altitude(m)": 560549.9054354425,
        "Argument of Periapsis(deg)": 0.008365883508269684,
        "Eccentricity": 0.0,
        "Inclination(deg)": 53.0,
        "Latitude(deg)": -24.794011028018065,
        "Longitude(deg)": 14.270114941915951,
        "Mean Anomaly(deg)": -148.5924511146389,
        "RAAN(deg)": 274.98754951814067,
        "Satellite Name": "Starlink Shell 1 1222",
        "Satellite Number": 1222,
        "Semi-Major Axis(m)": 6931778.249405717,
        "Time(s)": 240
    },
    {
        "Altitude(m)": 560719.5422580922,
        "Argument of Periapsis(deg)": 0.008714461987780921,
        "Eccentricity": 0.0,
        "Inclination(deg)": 53.0,
        "Latitude(deg)": -25.26457796195799,
        "Longitude(deg)": 14.686364330704128,
        "Mean Anomaly(deg)": -147.96561991108211,
        "RAAN(deg)": 274.98703074806315,
        "Satellite Name": "Starlink Shell 1 1222",
        "Satellite Number": 1222,
        "Semi-Major Axis(m)": 6931778.249405717,
        "Time(s)": 250
    },
    {
        "Altitude(m)": 560889.9981347873,
        "Argument of Periapsis(deg)": 0.009063040467292158,
        "Eccentricity": 0.0,
        "Inclination(deg)": 53.0,
        "Latitude(deg)": -25.733672042957185,
        "Longitude(deg)": 15.106131865577758,
        "Mean Anomaly(deg)": -147.3387887075254,
        "RAAN(deg)": 274.98651197798574,
        "Satellite Name": "Starlink Shell 1 1222",
        "Satellite Number": 1222,
        "Semi-Major Axis(m)": 6931778.249405717,
        "Time(s)": 260
    },
    {
        "Altitude(m)": 561061.2110057516,
        "Argument of Periapsis(deg)": 0.009411618946803396,
        "Eccentricity": 0.0,
        "Inclination(deg)": 53.0,
        "Latitude(deg)": -26.20125154544363,
        "Longitude(deg)": 15.529509592839101,
        "Mean Anomaly(deg)": -146.7119575039687,
        "RAAN(deg)": 274.9859932079082,
        "Satellite Name": "Starlink Shell 1 1222",
        "Satellite Number": 1222,
        "Semi-Major Axis(m)": 6931778.249405717,
        "Time(s)": 270
    },
    {
        "Altitude(m)": 561233.1183253126,
        "Argument of Periapsis(deg)": 0.009760197426314633,
        "Eccentricity": 0.0,
        "Inclination(deg)": 53.0,
        "Latitude(deg)": -26.667273865737602,
        "Longitude(deg)": 15.956590323791758,
        "Mean Anomaly(deg)": -146.08512630041193,
        "RAAN(deg)": 274.98547443783076,
        "Satellite Name": "Starlink Shell 1 1222",
        "Satellite Number": 1222,
        "Semi-Major Axis(m)": 6931778.249405717,
        "Time(s)": 280
    },
    {
        "Altitude(m)": 561405.6570899694,
        "Argument of Periapsis(deg)": 0.01010877590582587,
        "Eccentricity": 0.0,
        "Inclination(deg)": 53.0,
        "Latitude(deg)": -27.13169549470305,
        "Longitude(deg)": 16.387468149664702,
        "Mean Anomaly(deg)": -145.4582950968553,
        "RAAN(deg)": 274.9849556677533,
        "Satellite Name": "Starlink Shell 1 1222",
        "Satellite Number": 1222,
        "Semi-Major Axis(m)": 6931778.249405717,
        "Time(s)": 290
    },
    {
        "Altitude(m)": 561578.763866641,
        "Argument of Periapsis(deg)": 0.010457354385337106,
        "Eccentricity": 0.0,
        "Inclination(deg)": 53.0,
        "Latitude(deg)": -27.594471989894153,
        "Longitude(deg)": 16.82223895451196,
        "Mean Anomaly(deg)": -144.83146389329852,
        "RAAN(deg)": 274.9844368976758,
        "Satellite Name": "Starlink Shell 1 1222",
        "Satellite Number": 1222,
        "Semi-Major Axis(m)": 6931778.249405717,
        "Time(s)": 300
    },
    {
        "Altitude(m)": 561752.3748211346,
        "Argument of Periapsis(deg)": 0.010805932864848343,
        "Eccentricity": 0.0,
        "Inclination(deg)": 53.0,
        "Latitude(deg)": -28.055557947205735,
        "Longitude(deg)": 17.26099941302205,
        "Mean Anomaly(deg)": -144.20463268974186,
        "RAAN(deg)": 274.9839181275983,
        "Satellite Name": "Starlink Shell 1 1222",
        "Satellite Number": 1222,
        "Semi-Major Axis(m)": 6931778.249405717,
        "Time(s)": 310
    },
    {
        "Altitude(m)": 561926.4257467651,
        "Argument of Periapsis(deg)": 0.01115451134435958,
        "Eccentricity": 0.0,
        "Inclination(deg)": 53.0,
        "Latitude(deg)": -28.514906972036957,
        "Longitude(deg)": 17.703847498780377,
        "Mean Anomaly(deg)": -143.5778014861851,
        "RAAN(deg)": 274.9833993575209,
        "Satellite Name": "Starlink Shell 1 1222",
        "Satellite Number": 1222,
        "Semi-Major Axis(m)": 6931778.249405717,
        "Time(s)": 320
    },
    {
        "Altitude(m)": 562100.8520931778,
        "Argument of Periapsis(deg)": 0.011503089823870818,
        "Eccentricity": 0.0,
        "Inclination(deg)": 53.0,
        "Latitude(deg)": -28.97247164998169,
        "Longitude(deg)": 18.1508829898921,
        "Mean Anomaly(deg)": -142.95097028262845,
        "RAAN(deg)": 274.9828805874434,
        "Satellite Name": "Starlink Shell 1 1222",
        "Satellite Number": 1222,
        "Semi-Major Axis(m)": 6931778.249405717,
        "Time(s)": 330
    },
    {
        "Altitude(m)": 562275.5889952972,
        "Argument of Periapsis(deg)": 0.011851668303382053,
        "Eccentricity": 0.0,
        "Inclination(deg)": 53.0,
        "Latitude(deg)": -29.428203517068724,
        "Longitude(deg)": 18.602206458861875,
        "Mean Anomaly(deg)": -142.32413907907167,
        "RAAN(deg)": 274.98236181736587,
        "Satellite Name": "Starlink Shell 1 1222",
        "Satellite Number": 1222,
        "Semi-Major Axis(m)": 6931778.249405717,
        "Time(s)": 340
    },
    {
        "Altitude(m)": 562450.5713024229,
        "Argument of Periapsis(deg)": 0.012200246782893292,
        "Eccentricity": 0.0,
        "Inclination(deg)": 53.0,
        "Latitude(deg)": -29.882053029564485,
        "Longitude(deg)": 19.05791977222626,
        "Mean Anomaly(deg)": -141.69730787551495,
        "RAAN(deg)": 274.98184304728846,
        "Satellite Name": "Starlink Shell 1 1222",
        "Satellite Number": 1222,
        "Semi-Major Axis(m)": 6931778.249405717,
        "Time(s)": 350
    },
    {
        "Altitude(m)": 562625.7336074507,
        "Argument of Periapsis(deg)": 0.012548825262404526,
        "Eccentricity": 0.0,
        "Inclination(deg)": 53.0,
        "Latitude(deg)": -30.333969533367963,
        "Longitude(deg)": 19.518126586803415,
        "Mean Anomaly(deg)": -141.0704766719583,
        "RAAN(deg)": 274.981324277211,
        "Satellite Name": "Starlink Shell 1 1222",
        "Satellite Number": 1222,
        "Semi-Major Axis(m)": 6931778.249405717,
        "Time(s)": 360
    },
    {
        "Altitude(m)": 562801.010276213,
        "Argument of Periapsis(deg)": 0.012897403741915765,
        "Eccentricity": 0.0,
        "Inclination(deg)": 53.0,
        "Latitude(deg)": -30.783901233027194,
        "Longitude(deg)": 19.982931329406792,
        "Mean Anomaly(deg)": -140.4436454684016,
        "RAAN(deg)": 274.9808055071335,
        "Satellite Name": "Starlink Shell 1 1222",
        "Satellite Number": 1222,
        "Semi-Major Axis(m)": 6931778.249405717,
        "Time(s)": 370
    }
]